STARLINK-11323 [DTC]    
1 61533U 24184B   25123.91260208 -.00001441  00000+0 -70468-5 0  9999
2 61533  53.1577 323.3316 0000142 107.3482 252.7551 15.69721436 31769
STARLINK-11338 [DTC]    
1 61534U 24184C   25123.79017836 -.00001437  00000+0 -70148-5 0  9993
2 61534  53.1578 323.9938 0000591  58.2246 301.8829 15.69707149 31744
STARLINK-11362 [DTC]    
1 61535U 24184D   25123.90279269 -.00001600  00000+0 -83595-5 0  9999
2 61535  53.1577 323.2668 0000364  44.1108 315.9938 15.69721089 31764
STARLINK-11295 [DTC]    
1 61536U 24184E   25123.90769901 -.00002273  00000+0 -13905-4 0  9991
2 61536  53.1585 323.2993 0000594 125.4038 234.7035 15.69721751 31767
STARLINK-11331 [DTC]    
1 61537U 24184F   25123.89789068 -.00001373  00000+0 -64812-5 0  9990
2 61537  53.1583 323.2311 0000317  40.9187 319.1854 15.69716692 31764
STARLINK-11325 [DTC]    
1 61538U 24184G   25123.82931555 -.00000726  00000+0 -11406-5 0  9996
2 61538  53.1588 323.5117 0000541  76.2106 283.8972 15.69712343 31755
STARLINK-11332 [DTC]    
1 61539U 24184H   25123.88808309  .00000928  00000+0  12511-4 0  9992
2 61539  53.1591 323.1842 0000396  52.0503 308.0551 15.69708694 31760
STARLINK-11350 [DTC]    
1 61540U 24184J   25123.88317677  .00001853  00000+0  20145-4 0  9997
2 61540  53.1576 323.1326 0000612 116.7486 243.3595 15.69706224 31767
STARLINK-11357 [DTC]    
1 61541U 24184K   25123.81470198 -.00001097  00000+0 -42121-5 0  9990
2 61541  53.1590 324.1493 0000301 151.4090 208.6944 15.69709491 31741
STARLINK-11322 [DTC]    
1 61542U 24184L   25123.87348404 -.00005833  00000+0 -43357-4 0  9994
2 61542  53.1589 323.8014 0000880  91.6051 268.5068 15.69694168 32814
STARLINK-11364 [DTC]    
1 61543U 24184M   25123.86856394 -.00002643  00000+0 -16971-4 0  9994
2 61543  53.1584 323.7721 0000480 115.9141 244.1926 15.69714997 31758
STARLINK-11349 [DTC]    
1 61544U 24184N   25123.86365682  .00000647  00000+0  10194-4 0  9991
2 61544  53.1581 323.7387 0000668  79.6162 280.4931 15.69711445 32824
STARLINK-32406          
1 61545U 24184P   25124.08382383  .00000834  00000+0  40276-4 0  9996
2 61545  53.1615  12.1196 0001193  94.5533 265.5604 15.30203517 32131
STARLINK-32445          
1 61546U 24184Q   25123.96588676 -.00001733  00000+0 -46455-4 0  9992
2 61546  53.1616  12.8074 0001045  86.0635 274.0485 15.30171914 31080
