[
  {
    "OBJECT_NAME": "STARLINK-11323 [DTC]",
    "OBJECT_ID": "2024-184B",
    "EPOCH": "2025-05-03T21:54:08.819712",
    "MEAN_MOTION": 15.69721436,
    "ECCENTRICITY": 1.42e-05,
    "INCLINATION": 53.1577,
    "RA_OF_ASC_NODE": 323.3316,
    "ARG_OF_PERICENTER": 107.3482,
    "MEAN_ANOMALY": 252.7551,
    "EPHEMERIS_TYPE": 0,
    "CLASSIFICATION_TYPE": "U",
    "NORAD_CAT_ID": 61533,
    "ELEMENT_SET_NO": 999,
    "REV_AT_EPOCH": 3176,
    "BSTAR": -7.0468e-06,
    "MEAN_MOTION_DOT": -1.441e-05,
    "MEAN_MOTION_DDOT": 0
  },
  {
    "OBJECT_NAME": "STARLINK-11338 [DTC]",
    "OBJECT_ID": "2024-184C",
    "EPOCH": "2025-05-03T18:57:51.410304",
    "MEAN_MOTION": 15.69707149,
    "ECCENTRICITY": 5.91e-05,
    "INCLINATION": 53.1578,
    "RA_OF_ASC_NODE": 323.9938,
    "ARG_OF_PERICENTER": 58.2246,
    "MEAN_ANOMALY": 301.8829,
    "EPHEMERIS_TYPE": 0,
    "CLASSIFICATION_TYPE": "U",
    "NORAD_CAT_ID": 61534,
    "ELEMENT_SET_NO": 999,
    "REV_AT_EPOCH": 3174,
    "BSTAR": -7.0148e-06,
    "MEAN_MOTION_DOT": -1.437e-05,
    "MEAN_MOTION_DDOT": 0
  },
  {
    "OBJECT_NAME": "STARLINK-11362 [DTC]",
    "OBJECT_ID": "2024-184D",
    "EPOCH": "2025-05-03T21:40:01.288416",
    "MEAN_MOTION": 15.69721089,
    "ECCENTRICITY": 3.64e-05,
    "INCLINATION": 53.1577,
    "RA_OF_ASC_NODE": 323.2668,
    "ARG_OF_PERICENTER": 44.1108,
    "MEAN_ANOMALY": 315.9938,
    "EPHEMERIS_TYPE": 0,
    "CLASSIFICATION_TYPE": "U",
    "NORAD_CAT_ID": 61535,
    "ELEMENT_SET_NO": 999,
    "REV_AT_EPOCH": 3176,
    "BSTAR": -8.3595e-06,
    "MEAN_MOTION_DOT": -1.6e-05,
    "MEAN_MOTION_DDOT": 0
  },
  {
    "OBJECT_NAME": "STARLINK-11295 [DTC]",
    "OBJECT_ID": "2024-184E",
    "EPOCH": "2025-05-03T21:47:05.194464",
    "MEAN_MOTION": 15.69721751,
    "ECCENTRICITY": 5.94e-05,
    "INCLINATION": 53.1585,
    "RA_OF_ASC_NODE": 323.2993,
    "ARG_OF_PERICENTER": 125.4038,
    "MEAN_ANOMALY": 234.7035,
    "EPHEMERIS_TYPE": 0,
    "CLASSIFICATION_TYPE": "U",
    "NORAD_CAT_ID": 61536,
    "ELEMENT_SET_NO": 999,
    "REV_AT_EPOCH": 3176,
    "BSTAR": -1.3905e-05,
    "MEAN_MOTION_DOT": -2.273e-05,
    "MEAN_MOTION_DDOT": 0
  },
  {
    "OBJECT_NAME": "STARLINK-11331 [DTC]",
    "OBJECT_ID": "2024-184F",
    "EPOCH": "2025-05-03T21:32:57.754752",
    "MEAN_MOTION": 15.69716692,
    "ECCENTRICITY": 3.17e-05,
    "INCLINATION": 53.1583,
    "RA_OF_ASC_NODE": 323.2311,
    "ARG_OF_PERICENTER": 40.9187,
    "MEAN_ANOMALY": 319.1854,
    "EPHEMERIS_TYPE": 0,
    "CLASSIFICATION_TYPE": "U",
    "NORAD_CAT_ID": 61537,
    "ELEMENT_SET_NO": 999,
    "REV_AT_EPOCH": 3176,
    "BSTAR": -6.4812e-06,
    "MEAN_MOTION_DOT": -1.373e-05,
    "MEAN_MOTION_DDOT": 0
  },
  {
    "OBJECT_NAME": "STARLINK-11325 [DTC]",
    "OBJECT_ID": "2024-184G",
    "EPOCH": "2025-05-03T19:54:12.863520",
    "MEAN_MOTION": 15.69712343,
    "ECCENTRICITY": 5.41e-05,
    "INCLINATION": 53.1588,
    "RA_OF_ASC_NODE": 323.5117,
    "ARG_OF_PERICENTER": 76.2106,
    "MEAN_ANOMALY": 283.8972,
    "EPHEMERIS_TYPE": 0,
    "CLASSIFICATION_TYPE": "U",
    "NORAD_CAT_ID": 61538,
    "ELEMENT_SET_NO": 999,
    "REV_AT_EPOCH": 3175,
    "BSTAR": -1.1406e-06,
    "MEAN_MOTION_DOT": -7.26e-06,
    "MEAN_MOTION_DDOT": 0
  },
  {
    "OBJECT_NAME": "STARLINK-11332 [DTC]",
    "OBJECT_ID": "2024-184H",
    "EPOCH": "2025-05-03T21:18:50.378976",
    "MEAN_MOTION": 15.69708694,
    "ECCENTRICITY": 3.96e-05,
    "INCLINATION": 53.1591,
    "RA_OF_ASC_NODE": 323.1842,
    "ARG_OF_PERICENTER": 52.0503,
    "MEAN_ANOMALY": 308.0551,
    "EPHEMERIS_TYPE": 0,
    "CLASSIFICATION_TYPE": "U",
    "NORAD_CAT_ID": 61539,
    "ELEMENT_SET_NO": 999,
    "REV_AT_EPOCH": 3176,
    "BSTAR": 1.2511e-05,
    "MEAN_MOTION_DOT": 9.28e-06,
    "MEAN_MOTION_DDOT": 0
  },
  {
    "OBJECT_NAME": "STARLINK-11350 [DTC]",
    "OBJECT_ID": "2024-184J",
    "EPOCH": "2025-05-03T21:11:46.472928",
    "MEAN_MOTION": 15.69706224,
    "ECCENTRICITY": 6.12e-05,
    "INCLINATION": 53.1576,
    "RA_OF_ASC_NODE": 323.1326,
    "ARG_OF_PERICENTER": 116.7486,
    "MEAN_ANOMALY": 243.3595,
    "EPHEMERIS_TYPE": 0,
    "CLASSIFICATION_TYPE": "U",
    "NORAD_CAT_ID": 61540,
    "ELEMENT_SET_NO": 999,
    "REV_AT_EPOCH": 3176,
    "BSTAR": 2.0145e-05,
    "MEAN_MOTION_DOT": 1.853e-05,
    "MEAN_MOTION_DDOT": 0
  },
  {
    "OBJECT_NAME": "STARLINK-11357 [DTC]",
    "OBJECT_ID": "2024-184K",
    "EPOCH": "2025-05-03T19:33:10.251072",
    "MEAN_MOTION": 15.69709491,
    "ECCENTRICITY": 3.01e-05,
    "INCLINATION": 53.159,
    "RA_OF_ASC_NODE": 324.1493,
    "ARG_OF_PERICENTER": 151.409,
    "MEAN_ANOMALY": 208.6944,
    "EPHEMERIS_TYPE": 0,
    "CLASSIFICATION_TYPE": "U",
    "NORAD_CAT_ID": 61541,
    "ELEMENT_SET_NO": 999,
    "REV_AT_EPOCH": 3174,
    "BSTAR": -4.2121e-06,
    "MEAN_MOTION_DOT": -1.097e-05,
    "MEAN_MOTION_DDOT": 0
  },
  {
    "OBJECT_NAME": "STARLINK-11322 [DTC]",
    "OBJECT_ID": "2024-184L",
    "EPOCH": "2025-05-03T20:57:49.021056",
    "MEAN_MOTION": 15.69694168,
    "ECCENTRICITY": 8.8e-05,
    "INCLINATION": 53.1589,
    "RA_OF_ASC_NODE": 323.8014,
    "ARG_OF_PERICENTER": 91.6051,
    "MEAN_ANOMALY": 268.5068,
    "EPHEMERIS_TYPE": 0,
    "CLASSIFICATION_TYPE": "U",
    "NORAD_CAT_ID": 61542,
    "ELEMENT_SET_NO": 999,
    "REV_AT_EPOCH": 3281,
    "BSTAR": -4.3357e-05,
    "MEAN_MOTION_DOT": -5.833e-05,
    "MEAN_MOTION_DDOT": 0
  },
  {
    "OBJECT_NAME": "STARLINK-11364 [DTC]",
    "OBJECT_ID": "2024-184M",
    "EPOCH": "2025-05-03T20:50:43.924416",
    "MEAN_MOTION": 15.69714997,
    "ECCENTRICITY": 4.8e-05,
    "INCLINATION": 53.1584,
    "RA_OF_ASC_NODE": 323.7721,
    "ARG_OF_PERICENTER": 115.9141,
    "MEAN_ANOMALY": 244.1926,
    "EPHEMERIS_TYPE": 0,
    "CLASSIFICATION_TYPE": "U",
    "NORAD_CAT_ID": 61543,
    "ELEMENT_SET_NO": 999,
    "REV_AT_EPOCH": 3175,
    "BSTAR": -1.6971e-05,
    "MEAN_MOTION_DOT": -2.643e-05,
    "MEAN_MOTION_DDOT": 0
  },
  {
    "OBJECT_NAME": "STARLINK-11349 [DTC]",
    "OBJECT_ID": "2024-184N",
    "EPOCH": "2025-05-03T20:43:39.949248",
    "MEAN_MOTION": 15.69711445,
    "ECCENTRICITY": 6.68e-05,
    "INCLINATION": 53.1581,
    "RA_OF_ASC_NODE": 323.7387,
    "ARG_OF_PERICENTER": 79.6162,
    "MEAN_ANOMALY": 280.4931,
    "EPHEMERIS_TYPE": 0,
    "CLASSIFICATION_TYPE": "U",
    "NORAD_CAT_ID": 61544,
    "ELEMENT_SET_NO": 999,
    "REV_AT_EPOCH": 3282,
    "BSTAR": 1.0194e-05,
    "MEAN_MOTION_DOT": 6.47e-06,
    "MEAN_MOTION_DDOT": 0
  },
  {
    "OBJECT_NAME": "STARLINK-32406",
    "OBJECT_ID": "2024-184P",
    "EPOCH": "2025-05-04T02:00:42.378912",
    "MEAN_MOTION": 15.30203517,
    "ECCENTRICITY": 0.0001193,
    "INCLINATION": 53.1615,
    "RA_OF_ASC_NODE": 12.1196,
    "ARG_OF_PERICENTER": 94.5533,
    "MEAN_ANOMALY": 265.5604,
    "EPHEMERIS_TYPE": 0,
    "CLASSIFICATION_TYPE": "U",
    "NORAD_CAT_ID": 61545,
    "ELEMENT_SET_NO": 999,
    "REV_AT_EPOCH": 3213,
    "BSTAR": 4.0276e-05,
    "MEAN_MOTION_DOT": 8.34e-06,
    "MEAN_MOTION_DDOT": 0
  },
  {
    "OBJECT_NAME": "STARLINK-32445",
    "OBJECT_ID": "2024-184Q",
    "EPOCH": "2025-05-03T23:10:52.616064",
    "MEAN_MOTION": 15.30171914,
    "ECCENTRICITY": 0.0001045,
    "INCLINATION": 53.1616,
    "RA_OF_ASC_NODE": 12.8074,
    "ARG_OF_PERICENTER": 86.0635,
    "MEAN_ANOMALY": 274.0485,
    "EPHEMERIS_TYPE": 0,
    "CLASSIFICATION_TYPE": "U",
    "NORAD_CAT_ID": 61546,
    "ELEMENT_SET_NO": 999,
    "REV_AT_EPOCH": 3108,
    "BSTAR": -4.6455e-05,
    "MEAN_MOTION_DOT": -1.733e-05,
    "MEAN_MOTION_DDOT": 0
  }
]